[{"OBJECT_NAME":"COSMOS 2440","OBJECT_ID":"2008-033A","EPOCH":"2026-03-04T22:51:33.646464","MEAN_MOTION":1.00277218,"ECCENTRICITY":0.00048948,"INCLINATION":10.3833,"RA_OF_ASC_NODE":41.9401,"ARG_OF_PERICENTER":222.5363,"MEAN_ANOMALY":320.84,"EPHEMERIS_TYPE":0,"CLASSIFICATION_TYPE":"U","NORAD_CAT_ID":33108,"ELEMENT_SET_NO":999,"REV_AT_EPOCH":6474,"BSTAR":0,"MEAN_MOTION_DOT":-1.5e-6,"MEAN_MOTION_DDOT":0},{"OBJECT_NAME":"SL-12 R/B(2)","OBJECT_ID":"2008-033D","EPOCH":"2026-03-04T23:59:02.366016","MEAN_MOTION":1.0027272,"ECCENTRICITY":0.00313034,"INCLINATION":10.3636,"RA_OF_ASC_NODE":42.0746,"ARG_OF_PERICENTER":335.085,"MEAN_ANOMALY":204.5629,"EPHEMERIS_TYPE":0,"CLASSIFICATION_TYPE":"U","NORAD_CAT_ID":33111,"ELEMENT_SET_NO":999,"REV_AT_EPOCH":6476,"BSTAR":0,"MEAN_MOTION_DOT":3.6e-7,"MEAN_MOTION_DDOT":0},{"OBJECT_NAME":"INTELSAT 25 (IS-25)","OBJECT_ID":"2008-034A","EPOCH":"2026-03-05T04:14:38.536224","MEAN_MOTION":1.00270313,"ECCENTRICITY":0.00037058,"INCLINATION":2.4394,"RA_OF_ASC_NODE":81.6096,"ARG_OF_PERICENTER":246.6817,"MEAN_ANOMALY":226.7636,"EPHEMERIS_TYPE":0,"CLASSIFICATION_TYPE":"U","NORAD_CAT_ID":33153,"ELEMENT_SET_NO":999,"REV_AT_EPOCH":6465,"BSTAR":0,"MEAN_MOTION_DOT":-2.32e-6,"MEAN_MOTION_DDOT":0},{"OBJECT_NAME":"ECHOSTAR 11","OBJECT_ID":"2008-035A","EPOCH":"2026-03-05T06:37:45.178176","MEAN_MOTION":1.00272379,"ECCENTRICITY":0.0002528,"INCLINATION":0.7362,"RA_OF_ASC_NODE":85.4827,"ARG_OF_PERICENTER":263.3248,"MEAN_ANOMALY":163.6333,"EPHEMERIS_TYPE":0,"CLASSIFICATION_TYPE":"U","NORAD_CAT_ID":33207,"ELEMENT_SET_NO":999,"REV_AT_EPOCH":5017,"BSTAR":0,"MEAN_MOTION_DOT":-6.5e-7,"MEAN_MOTION_DDOT":0},{"OBJECT_NAME":"SUPERBIRD-C2","OBJECT_ID":"2008-038A","EPOCH":"2026-03-05T05:28:38.665920","MEAN_MOTION":1.00270037,"ECCENTRICITY":0.00012913,"INCLINATION":2.0931,"RA_OF_ASC_NODE":82.6035,"ARG_OF_PERICENTER":4.2693,"MEAN_ANOMALY":294.2578,"EPHEMERIS_TYPE":0,"CLASSIFICATION_TYPE":"U","NORAD_CAT_ID":33274,"ELEMENT_SET_NO":999,"REV_AT_EPOCH":10468,"BSTAR":0,"MEAN_MOTION_DOT":-3.14e-6,"MEAN_MOTION_DDOT":0},{"OBJECT_NAME":"INMARSAT 4-F3","OBJECT_ID":"2008-039A","EPOCH":"2026-03-04T22:13:38.730144","MEAN_MOTION":1.00272427,"ECCENTRICITY":0.00027329,"INCLINATION":4.2037,"RA_OF_ASC_NODE":31.1919,"ARG_OF_PERICENTER":319.5034,"MEAN_ANOMALY":47.3898,"EPHEMERIS_TYPE":0,"CLASSIFICATION_TYPE":"U","NORAD_CAT_ID":33278,"ELEMENT_SET_NO":999,"REV_AT_EPOCH":4550,"BSTAR":0,"MEAN_MOTION_DOT":-1.48e-6,"MEAN_MOTION_DDOT":0},{"OBJECT_NAME":"NIMIQ 4","OBJECT_ID":"2008-044A","EPOCH":"2026-03-05T05:03:01.760256","MEAN_MOTION":1.00271144,"ECCENTRICITY":0.00019949,"INCLINATION":0.0206,"RA_OF_ASC_NODE":227.8269,"ARG_OF_PERICENTER":127.2742,"MEAN_ANOMALY":161.5861,"EPHEMERIS_TYPE":0,"CLASSIFICATION_TYPE":"U","NORAD_CAT_ID":33373,"ELEMENT_SET_NO":999,"REV_AT_EPOCH":6394,"BSTAR":0,"MEAN_MOTION_DOT":-2.29e-6,"MEAN_MOTION_DDOT":0},{"OBJECT_NAME":"GALAXY 19 (G-19)","OBJECT_ID":"2008-045A","EPOCH":"2026-03-05T04:58:47.167104","MEAN_MOTION":1.00271887,"ECCENTRICITY":0.00031522,"INCLINATION":0.0473,"RA_OF_ASC_NODE":263.2411,"ARG_OF_PERICENTER":96.3188,"MEAN_ANOMALY":141.061,"EPHEMERIS_TYPE":0,"CLASSIFICATION_TYPE":"U","NORAD_CAT_ID":33376,"ELEMENT_SET_NO":999,"REV_AT_EPOCH":6386,"BSTAR":0,"MEAN_MOTION_DOT":-1.48e-6,"MEAN_MOTION_DDOT":0},{"OBJECT_NAME":"ASTRA 1M","OBJECT_ID":"2008-057A","EPOCH":"2026-03-05T05:31:51.496896","MEAN_MOTION":1.002744,"ECCENTRICITY":9.342e-5,"INCLINATION":0.0366,"RA_OF_ASC_NODE":61.9971,"ARG_OF_PERICENTER":11.8413,"MEAN_ANOMALY":191.2889,"EPHEMERIS_TYPE":0,"CLASSIFICATION_TYPE":"U","NORAD_CAT_ID":33436,"ELEMENT_SET_NO":999,"REV_AT_EPOCH":4469,"BSTAR":0,"MEAN_MOTION_DOT":1.11e-6,"MEAN_MOTION_DDOT":0},{"OBJECT_NAME":"FENGYUN 2D DEB","OBJECT_ID":"2006-053D","EPOCH":"2026-02-24T23:47:38.693184","MEAN_MOTION":1.00249682,"ECCENTRICITY":0.00379697,"INCLINATION":11.4621,"RA_OF_ASC_NODE":38.0946,"ARG_OF_PERICENTER":346.7068,"MEAN_ANOMALY":194.206,"EPHEMERIS_TYPE":0,"CLASSIFICATION_TYPE":"U","NORAD_CAT_ID":33458,"ELEMENT_SET_NO":999,"REV_AT_EPOCH":6425,"BSTAR":0,"MEAN_MOTION_DOT":-3.0e-7,"MEAN_MOTION_DDOT":0},{"OBJECT_NAME":"EUTELSAT HOTBIRD 13C","OBJECT_ID":"2008-065A","EPOCH":"2026-03-05T04:30:38.664864","MEAN_MOTION":1.00268824,"ECCENTRICITY":0.00038788,"INCLINATION":2.6832,"RA_OF_ASC_NODE":80.4385,"ARG_OF_PERICENTER":277.1336,"MEAN_ANOMALY":182.6696,"EPHEMERIS_TYPE":0,"CLASSIFICATION_TYPE":"U","NORAD_CAT_ID":33459,"ELEMENT_SET_NO":999,"REV_AT_EPOCH":4630,"BSTAR":0,"MEAN_MOTION_DOT":-2.91e-6,"MEAN_MOTION_DDOT":0},{"OBJECT_NAME":"EXPRESS-AM44","OBJECT_ID":"2009-007A","EPOCH":"2026-03-05T07:05:57.474240","MEAN_MOTION":1.00272017,"ECCENTRICITY":0.00043098,"INCLINATION":3.1968,"RA_OF_ASC_NODE":79.6827,"ARG_OF_PERICENTER":258.9371,"MEAN_ANOMALY":279.8906,"EPHEMERIS_TYPE":0,"CLASSIFICATION_TYPE":"U","NORAD_CAT_ID":33595,"ELEMENT_SET_NO":999,"REV_AT_EPOCH":5124,"BSTAR":0,"MEAN_MOTION_DOT":-9.6e-7,"MEAN_MOTION_DDOT":0},{"OBJECT_NAME":"NSS-9","OBJECT_ID":"2009-008A","EPOCH":"2026-03-05T06:18:39.508992","MEAN_MOTION":1.00273439,"ECCENTRICITY":0.0002147,"INCLINATION":0.993,"RA_OF_ASC_NODE":83.6954,"ARG_OF_PERICENTER":256.7231,"MEAN_ANOMALY":100.3069,"EPHEMERIS_TYPE":0,"CLASSIFICATION_TYPE":"U","NORAD_CAT_ID":33749,"ELEMENT_SET_NO":999,"REV_AT_EPOCH":6247,"BSTAR":0,"MEAN_MOTION_DOT":6.4e-7,"MEAN_MOTION_DDOT":0},{"OBJECT_NAME":"TELSTAR 11N","OBJECT_ID":"2009-009A","EPOCH":"2026-03-04T08:06:38.530080","MEAN_MOTION":1.00271929,"ECCENTRICITY":0.00023413,"INCLINATION":0.0202,"RA_OF_ASC_NODE":137.5392,"ARG_OF_PERICENTER":194.5952,"MEAN_ANOMALY":274.0492,"EPHEMERIS_TYPE":0,"CLASSIFICATION_TYPE":"U","NORAD_CAT_ID":34111,"ELEMENT_SET_NO":999,"REV_AT_EPOCH":4519,"BSTAR":0,"MEAN_MOTION_DOT":-2.63e-6,"MEAN_MOTION_DDOT":0},{"OBJECT_NAME":"RADUGA-1 8","OBJECT_ID":"2009-010A","EPOCH":"2026-03-04T22:47:28.694688","MEAN_MOTION":0.99814702,"ECCENTRICITY":0.00103443,"INCLINATION":11.9114,"RA_OF_ASC_NODE":42.6802,"ARG_OF_PERICENTER":19.2963,"MEAN_ANOMALY":157.8078,"EPHEMERIS_TYPE":0,"CLASSIFICATION_TYPE":"U","NORAD_CAT_ID":34264,"ELEMENT_SET_NO":999,"REV_AT_EPOCH":6213,"BSTAR":0,"MEAN_MOTION_DOT":-1.6e-7,"MEAN_MOTION_DDOT":0},{"OBJECT_NAME":"SL-12 R/B(2)","OBJECT_ID":"2009-010B","EPOCH":"2026-03-03T20:38:05.849952","MEAN_MOTION":1.00004915,"ECCENTRICITY":0.0003839,"INCLINATION":11.9028,"RA_OF_ASC_NODE":42.6319,"ARG_OF_PERICENTER":293.6613,"MEAN_ANOMALY":74.5645,"EPHEMERIS_TYPE":0,"CLASSIFICATION_TYPE":"U","NORAD_CAT_ID":34265,"ELEMENT_SET_NO":999,"REV_AT_EPOCH":6214,"BSTAR":0,"MEAN_MOTION_DOT":-2.89e-6,"MEAN_MOTION_DDOT":0},{"OBJECT_NAME":"WGS F2 (USA 204)","OBJECT_ID":"2009-017A","EPOCH":"2026-03-04T14:35:16.467936","MEAN_MOTION":1.00270134,"ECCENTRICITY":5.28e-5,"INCLINATION":0.025,"RA_OF_ASC_NODE":141.8078,"ARG_OF_PERICENTER":231.7537,"MEAN_ANOMALY":65.1282,"EPHEMERIS_TYPE":0,"CLASSIFICATION_TYPE":"U","NORAD_CAT_ID":34713,"ELEMENT_SET_NO":999,"REV_AT_EPOCH":4456,"BSTAR":0,"MEAN_MOTION_DOT":0,"MEAN_MOTION_DDOT":0}]
