COSMOS 2440             
1 33108U 08033A   26063.95247276 -.00000150  00000+0  00000+0 0  9993
2 33108  10.3833  41.9401 0004894 222.5363 320.8400  1.00277218 64748
SL-12 R/B(2)            
1 33111U 08033D   26063.99933294  .00000036  00000+0  00000+0 0  9995
2 33111  10.3636  42.0746 0031303 335.0850 204.5629  1.00272720 64769
INTELSAT 25 (IS-25)     
1 33153U 08034A   26064.17683491 -.00000232  00000+0  00000+0 0  9993
2 33153   2.4394  81.6096 0003705 246.6817 226.7636  1.00270313 64658
ECHOSTAR 11             
1 33207U 08035A   26064.27621734 -.00000065  00000+0  00000+0 0  9991
2 33207   0.7362  85.4827 0002528 263.3248 163.6333  1.00272379 50173
SUPERBIRD-C2            
1 33274U 08038A   26064.22822530 -.00000314  00000+0  00000+0 0  9997
2 33274   2.0931  82.6035 0001291   4.2693 294.2578  1.00270037104683
INMARSAT 4-F3           
1 33278U 08039A   26063.92614271 -.00000148  00000+0  00000+0 0  9994
2 33278   4.2037  31.1919 0002732 319.5034  47.3898  1.00272427 45502
NIMIQ 4                 
1 33373U 08044A   26064.21043704 -.00000229  00000+0  00000+0 0  9996
2 33373   0.0206 227.8269 0001994 127.2742 161.5861  1.00271144 63943
GALAXY 19 (G-19)        
1 33376U 08045A   26064.20749036 -.00000148  00000+0  00000+0 0  9990
2 33376   0.0473 263.2411 0003152  96.3188 141.0610  1.00271887 63863
ASTRA 1M                
1 33436U 08057A   26064.23045714  .00000111  00000+0  00000+0 0  9994
2 33436   0.0366  61.9971 0000934  11.8413 191.2889  1.00274400 44692
FENGYUN 2D DEB          
1 33458U 06053D   26055.99142006 -.00000030  00000+0  00000+0 0  9998
2 33458  11.4621  38.0946 0037969 346.7068 194.2060  1.00249682 64259
EUTELSAT HOTBIRD 13C    
1 33459U 08065A   26064.18794751 -.00000291  00000+0  00000+0 0  9994
2 33459   2.6832  80.4385 0003878 277.1336 182.6696  1.00268824 46302
EXPRESS-AM44            
1 33595U 09007A   26064.29580410 -.00000096  00000+0  00000+0 0  9992
2 33595   3.1968  79.6827 0004309 258.9371 279.8906  1.00272017 51247
NSS-9                   
1 33749U 09008A   26064.26295728  .00000064  00000+0  00000+0 0  9990
2 33749   0.9930  83.6954 0002147 256.7231 100.3069  1.00273439 62471
TELSTAR 11N             
1 34111U 09009A   26063.33794595 -.00000263  00000+0  00000+0 0  9990
2 34111   0.0202 137.5392 0002341 194.5952 274.0492  1.00271929 45199
RADUGA-1 8              
1 34264U 09010A   26063.94963767 -.00000016  00000+0  00000+0 0  9993
2 34264  11.9114  42.6802 0010344  19.2963 157.8078  0.99814702 62130
SL-12 R/B(2)            
1 34265U 09010B   26062.85978993 -.00000289  00000+0  00000+0 0  9992
2 34265  11.9028  42.6319 0003839 293.6613  74.5645  1.00004915 62145
WGS F2 (USA 204)        
1 34713U 09017A   26063.60782949  .00000000  00000+0  00000+0 0  9995
2 34713   0.0250 141.8078 0000528 231.7537  65.1282  1.00270134 44560
